{
  "norad_id": 66467,
  "name": "STARLINK-35682",
  "history": [
    {
      "epoch": "2026-04-14T20:43:27.242400Z",
      "apogee_km": 483.9606488432155,
      "perigee_km": 482.19868840271374,
      "latitude_deg": -1.965244315274485e-05,
      "longitude_deg": -61.576957361271866,
      "height_km": 482.71672232209664,
      "semi_major_axis_km": 6861.216668622965,
      "eccentricity": 0.0001284,
      "inclination_deg": 43.0,
      "raan_deg": 92.3204,
      "arg_perigee_deg": 279.1149,
      "mean_anomaly_deg": 80.9557,
      "mean_motion_rev_day": 15.2756979
    },
    {
      "epoch": "2026-04-15T15:33:20.140992Z",
      "apogee_km": 483.8830499320984,
      "perigee_km": 482.2185257747651,
      "latitude_deg": 1.5558634780602095e-05,
      "longitude_deg": 10.74799438894614,
      "height_km": 482.67955435360267,
      "semi_major_axis_km": 6861.1877878534315,
      "eccentricity": 0.0001213,
      "inclination_deg": 42.9999,
      "raan_deg": 87.8891,
      "arg_perigee_deg": 280.2272,
      "mean_anomaly_deg": 79.8443,
      "mean_motion_rev_day": 15.27579435
    },
    {
      "epoch": "2026-04-16T15:05:40.577568Z",
      "apogee_km": 484.02672779610657,
      "perigee_km": 481.9944558794041,
      "latitude_deg": 1.1889723879925553e-05,
      "longitude_deg": 11.155927173406482,
      "height_km": 482.59761108918474,
      "semi_major_axis_km": 6861.147591837755,
      "eccentricity": 0.0001481,
      "inclination_deg": 42.9994,
      "raan_deg": 82.3489,
      "arg_perigee_deg": 280.7587,
      "mean_anomaly_deg": 79.3098,
      "mean_motion_rev_day": 15.27592859
    },
    {
      "epoch": "2026-04-17T22:28:48.250848Z",
      "apogee_km": 483.472957952682,
      "perigee_km": 482.5494474046018,
      "latitude_deg": 2.3276059159627872e-05,
      "longitude_deg": -108.30328613287162,
      "height_km": 482.502692338029,
      "semi_major_axis_km": 6861.148202678642,
      "eccentricity": 6.73e-05,
      "inclination_deg": 42.9956,
      "raan_deg": 74.9606,
      "arg_perigee_deg": 307.953,
      "mean_anomaly_deg": 52.1261,
      "mean_motion_rev_day": 15.27592655
    },
    {
      "epoch": "2026-04-18T14:10:21.779040Z",
      "apogee_km": 483.64617315763826,
      "perigee_km": 482.34255819815917,
      "latitude_deg": 4.358089040851278e-05,
      "longitude_deg": 11.97166068623993,
      "height_km": 482.69956963864155,
      "semi_major_axis_km": 6861.131365677898,
      "eccentricity": 9.5e-05,
      "inclination_deg": 42.9994,
      "raan_deg": 71.2697,
      "arg_perigee_deg": 276.2573,
      "mean_anomaly_deg": 83.8171,
      "mean_motion_rev_day": 15.27598278
    },
    {
      "epoch": "2026-04-19T13:42:42.194016Z",
      "apogee_km": 484.07687014686053,
      "perigee_km": 481.9087531263822,
      "latitude_deg": -1.3741698282188471e-05,
      "longitude_deg": 12.38082388052233,
      "height_km": 482.67316680127146,
      "semi_major_axis_km": 6861.129811636621,
      "eccentricity": 0.000158,
      "inclination_deg": 42.9973,
      "raan_deg": 65.7307,
      "arg_perigee_deg": 275.0912,
      "mean_anomaly_deg": 84.9759,
      "mean_motion_rev_day": 15.27598797
    },
    {
      "epoch": "2026-04-20T13:15:04.149504Z",
      "apogee_km": 483.87440687813705,
      "perigee_km": 482.2852118407527,
      "latitude_deg": 7.030966746319618e-06,
      "longitude_deg": 12.783432950218042,
      "height_km": 482.8546894028526,
      "semi_major_axis_km": 6861.216809359445,
      "eccentricity": 0.00011581,
      "inclination_deg": 43.0009,
      "raan_deg": 60.1915,
      "arg_perigee_deg": 270.1239,
      "mean_anomaly_deg": 89.948,
      "mean_motion_rev_day": 15.27569743
    },
    {
      "epoch": "2026-04-21T06:30:47.254464Z",
      "apogee_km": 483.81683297718973,
      "perigee_km": 482.20569814146984,
      "latitude_deg": -7.267666151351106e-06,
      "longitude_deg": 109.08398793626277,
      "height_km": 482.79400680562054,
      "semi_major_axis_km": 6861.148265559329,
      "eccentricity": 0.00011741,
      "inclination_deg": 43.0027,
      "raan_deg": 56.1306,
      "arg_perigee_deg": 269.5782,
      "mean_anomaly_deg": 90.4935,
      "mean_motion_rev_day": 15.27592634
    },
    {
      "epoch": "2026-04-22T12:19:45.355296Z",
      "apogee_km": 483.71979312355325,
      "perigee_km": 482.38213591799104,
      "latitude_deg": 5.7191515305123396e-05,
      "longitude_deg": 13.601361392546838,
      "height_km": 482.72788543098335,
      "semi_major_axis_km": 6861.187964520772,
      "eccentricity": 9.748e-05,
      "inclination_deg": 43.0029,
      "raan_deg": 49.1145,
      "arg_perigee_deg": 278.5761,
      "mean_anomaly_deg": 81.4981,
      "mean_motion_rev_day": 15.27579376
    },
    {
      "epoch": "2026-04-23T11:52:06.540096Z",
      "apogee_km": 483.9769752594748,
      "perigee_km": 482.1239057555431,
      "latitude_deg": -7.900616662332151e-07,
      "longitude_deg": 14.008806172264546,
      "height_km": 482.7857800948015,
      "semi_major_axis_km": 6861.187440507509,
      "eccentricity": 0.00013504,
      "inclination_deg": 43.0009,
      "raan_deg": 43.577,
      "arg_perigee_deg": 272.5626,
      "mean_anomaly_deg": 87.5071,
      "mean_motion_rev_day": 15.27579551
    },
    {
      "epoch": "2026-04-24T11:24:26.968896Z",
      "apogee_km": 483.4976754776508,
      "perigee_km": 482.4822286887429,
      "latitude_deg": 1.9981879776294073e-05,
      "longitude_deg": 14.415494288077609,
      "height_km": 482.3278613398848,
      "semi_major_axis_km": 6861.126952083197,
      "eccentricity": 7.4e-05,
      "inclination_deg": 43.0022,
      "raan_deg": 38.0355,
      "arg_perigee_deg": 329.6569,
      "mean_anomaly_deg": 30.424,
      "mean_motion_rev_day": 15.27599752
    },
    {
      "epoch": "2026-04-25T10:56:47.620608Z",
      "apogee_km": 483.84334749766094,
      "perigee_km": 482.2103904968408,
      "latitude_deg": -2.250553730525798e-05,
      "longitude_deg": 14.825184430635383,
      "height_km": 482.6306709652717,
      "semi_major_axis_km": 6861.163868997251,
      "eccentricity": 0.000119,
      "inclination_deg": 43.0021,
      "raan_deg": 32.498,
      "arg_perigee_deg": 282.23,
      "mean_anomaly_deg": 77.8418,
      "mean_motion_rev_day": 15.27587423
    },
    {
      "epoch": "2026-04-26T10:29:08.268000Z",
      "apogee_km": 483.5661520961212,
      "perigee_km": 482.42445968042284,
      "latitude_deg": 2.141429847061018e-05,
      "longitude_deg": 15.231285476905839,
      "height_km": 482.82507476304545,
      "semi_major_axis_km": 6861.132305888272,
      "eccentricity": 8.32e-05,
      "inclination_deg": 42.9996,
      "raan_deg": 26.9568,
      "arg_perigee_deg": 264.6103,
      "mean_anomaly_deg": 95.4654,
      "mean_motion_rev_day": 15.27597964
    },
    {
      "epoch": "2026-04-27T10:01:29.330976Z",
      "apogee_km": 483.84612798213493,
      "perigee_km": 482.26942542244797,
      "latitude_deg": -3.75634171433809e-05,
      "longitude_deg": 15.64164090034482,
      "height_km": 483.1284760604173,
      "semi_major_axis_km": 6861.194776702291,
      "eccentricity": 0.0001149,
      "inclination_deg": 43.0048,
      "raan_deg": 21.4217,
      "arg_perigee_deg": 248.1205,
      "mean_anomaly_deg": 111.9524,
      "mean_motion_rev_day": 15.27577101
    },
    {
      "epoch": "2026-04-28T17:24:37.689408Z",
      "apogee_km": 484.0369021907709,
      "perigee_km": 482.0389280554873,
      "latitude_deg": 1.5789200422983756e-05,
      "longitude_deg": -103.81879107032587,
      "height_km": 482.79500916089415,
      "semi_major_axis_km": 6861.174915123129,
      "eccentricity": 0.0001456,
      "inclination_deg": 42.9994,
      "raan_deg": 14.035,
      "arg_perigee_deg": 271.1235,
      "mean_anomaly_deg": 88.945,
      "mean_motion_rev_day": 15.27583734
    },
    {
      "epoch": "2026-04-29T09:06:11.566656Z",
      "apogee_km": 483.7832588017018,
      "perigee_km": 482.2396376238221,
      "latitude_deg": 1.8080462896506217e-05,
      "longitude_deg": 16.45377838121703,
      "height_km": 482.7705672547503,
      "semi_major_axis_km": 6861.148448212762,
      "eccentricity": 0.00011249,
      "inclination_deg": 43.0007,
      "raan_deg": 10.3432,
      "arg_perigee_deg": 271.2938,
      "mean_anomaly_deg": 88.7785,
      "mean_motion_rev_day": 15.27592573
    },
    {
      "epoch": "2026-04-30T00:47:45.341088Z",
      "apogee_km": 483.9691400593538,
      "perigee_km": 482.0787529953659,
      "latitude_deg": 5.865470951779188e-05,
      "longitude_deg": 136.72651808458562,
      "height_km": 482.9638715222129,
      "semi_major_axis_km": 6861.16094652736,
      "eccentricity": 0.00013776,
      "inclination_deg": 43.0002,
      "raan_deg": 6.6511,
      "arg_perigee_deg": 260.0532,
      "mean_anomaly_deg": 100.0165,
      "mean_motion_rev_day": 15.27588399
    }
  ]
}